TEVEL2-3                
1 63218U 25052J   26068.64540225  .00020365  00000+0  69446-3 0  9991
2 63218  97.3994 324.7775 0004761 105.7353 254.4413 15.30377031 54855
STARLINK-36180          
1 67114U 25299N   26068.29547513  .00026728  00000+0  95248-3 0  9999
2 67114  42.9978 171.4194 0001102 319.3332  40.7437 15.28423882 13052
